HULIANWANG DIGUI-44     
1 65047U 25162E   26201.28675377 -.00000086  00000+0  82240-4 0  9998
2 65047  50.0005 146.9767 0001450 348.2014  11.8824 13.29318769 47774
HULIANWANG DIGUI-45     
1 65048U 25162F   26201.27849498 -.00000081  00000+0  93026-4 0  9994
2 65048  50.0035 147.0183 0000274 349.3000  10.7867 13.29327423 47763
HULIANWANG DIGUI-46     
1 65049U 25162G   26201.27016552 -.00000081  00000+0  93361-4 0  9994
2 65049  50.0053 147.0258 0000237 346.6336  13.4530 13.29327246 47768
HULIANWANG DIGUI-47     
1 65050U 25162H   26201.26181432 -.00000086  00000+0  82413-4 0  9996
2 65050  50.0017 146.8838 0000243 336.6893  23.3968 13.29326864 47765
HULIANWANG DIGUI-48     
1 65051U 25162J   26201.25345365 -.00000095  00000+0  61790-4 0  9998
2 65051  50.0027 146.8678 0000257 345.1433  14.9432 13.29327534 47766
HULIANWANG DIGUI-49     
1 65106U 25168A   26201.31565868 -.00000112  00000+0  25063-4 0  9997
2 65106  50.0006 207.1484 0008254 206.6755 153.3693 13.29322111 47092
HULIANWANG DIGUI-50     
1 65107U 25168B   26201.23207456 -.00000114  00000+0  22347-4 0  9999
2 65107  49.9976 207.2870 0008838 192.2174 167.8485 13.29321812 47084
HULIANWANG DIGUI-51     
1 65108U 25168C   26201.29853812 -.00000102  00000+0  47486-4 0  9997
2 65108  50.0013 207.0791 0010147 191.4572 168.6070 13.29325050 47097
HULIANWANG DIGUI-52     
1 65109U 25168D   26201.29044724 -.00000099  00000+0  52711-4 0  9994
2 65109  50.0006 207.0129 0010390 204.0865 155.9522 13.29322978 47098
HULIANWANG DIGUI-53     
1 65110U 25168E   26201.28190616 -.00000101  00000+0  50051-4 0  9996
2 65110  50.0014 206.9982 0008890 195.0748 164.9860 13.29326440 47098
HULIANWANG DIGUI-54     
1 65111U 25168F   26201.25703978 -.00000112  00000+0  25872-4 0  9990
2 65111  49.9965 206.7276 0010747 199.2902 160.7565 13.29326576 47093
HULIANWANG DIGUI-55     
1 65112U 25168G   26201.27365986 -.00000103  00000+0  44210-4 0  9993
2 65112  49.9970 206.8276 0011785 195.2841 164.7676 13.29322872 47094
HULIANWANG DIGUI-56     
1 65113U 25168H   26201.26537685 -.00000107  00000+0  36418-4 0  9995
2 65113  49.9962 206.7605 0011968 215.1565 144.8518 13.29322323 47094
HULIANWANG DIGUI-57     
1 65114U 25168J   26201.24871665 -.00000112  00000+0  25996-4 0  9998
2 65114  49.9990 206.7581 0009555 207.4496 152.5872 13.29326470 47103
HULIANWANG DIGUI-58     
1 65164U 25174A   26201.28111549  .00000039  00000+0  56541-4 0  9999
2 65164  86.4940 240.8364 0001837 101.0886 259.0455 13.24407658 45172
HULIANWANG DIGUI-59     
1 65165U 25174B   26201.28870798  .00000050  00000+0  82362-4 0  9991
2 65165  86.4901 240.7120 0001927  99.6124 260.5228 13.24407748 45171
