{"fetched_at":"2026-07-20T18:29:26.415Z","source":"https://celestrak.org/NORAD/elements/gp.php?NAME=HULIANWANG&FORMAT=JSON","constellation":"guowang","records":[{"OBJECT_NAME":"HULIANWANG DIGUI-44","OBJECT_ID":"2025-162E","EPOCH":"2026-07-20T06:52:55.525728","CLASSIFICATION_TYPE":"U","MEAN_MOTION":13.29318769,"ECCENTRICITY":0.00014506,"INCLINATION":50.0005,"RA_OF_ASC_NODE":146.9767,"ARG_OF_PERICENTER":348.2014,"MEAN_ANOMALY":11.8824,"EPHEMERIS_TYPE":0,"NORAD_CAT_ID":65047,"ELEMENT_SET_NO":999,"REV_AT_EPOCH":4777,"BSTAR":0.000082239525,"MEAN_MOTION_DOT":-8.6e-7,"MEAN_MOTION_DDOT":0},{"OBJECT_NAME":"HULIANWANG DIGUI-45","OBJECT_ID":"2025-162F","EPOCH":"2026-07-20T06:41:01.966272","CLASSIFICATION_TYPE":"U","MEAN_MOTION":13.29327423,"ECCENTRICITY":0.00002747,"INCLINATION":50.0035,"RA_OF_ASC_NODE":147.0183,"ARG_OF_PERICENTER":349.3,"MEAN_ANOMALY":10.7867,"EPHEMERIS_TYPE":0,"NORAD_CAT_ID":65048,"ELEMENT_SET_NO":999,"REV_AT_EPOCH":4776,"BSTAR":0.000093025927,"MEAN_MOTION_DOT":-8.1e-7,"MEAN_MOTION_DDOT":0},{"OBJECT_NAME":"HULIANWANG DIGUI-46","OBJECT_ID":"2025-162G","EPOCH":"2026-07-20T06:29:02.300928","CLASSIFICATION_TYPE":"U","MEAN_MOTION":13.29327246,"ECCENTRICITY":0.00002372,"INCLINATION":50.0053,"RA_OF_ASC_NODE":147.0258,"ARG_OF_PERICENTER":346.6336,"MEAN_ANOMALY":13.453,"EPHEMERIS_TYPE":0,"NORAD_CAT_ID":65049,"ELEMENT_SET_NO":999,"REV_AT_EPOCH":4776,"BSTAR":0.000093361336,"MEAN_MOTION_DOT":-8.1e-7,"MEAN_MOTION_DDOT":0},{"OBJECT_NAME":"HULIANWANG DIGUI-47","OBJECT_ID":"2025-162H","EPOCH":"2026-07-20T06:17:00.757248","CLASSIFICATION_TYPE":"U","MEAN_MOTION":13.29326864,"ECCENTRICITY":0.00002436,"INCLINATION":50.0017,"RA_OF_ASC_NODE":146.8838,"ARG_OF_PERICENTER":336.6893,"MEAN_ANOMALY":23.3968,"EPHEMERIS_TYPE":0,"NORAD_CAT_ID":65050,"ELEMENT_SET_NO":999,"REV_AT_EPOCH":4776,"BSTAR":0.000082413148,"MEAN_MOTION_DOT":-8.6e-7,"MEAN_MOTION_DDOT":0},{"OBJECT_NAME":"HULIANWANG DIGUI-48","OBJECT_ID":"2025-162J","EPOCH":"2026-07-20T06:04:58.395360","CLASSIFICATION_TYPE":"U","MEAN_MOTION":13.29327534,"ECCENTRICITY":0.00002575,"INCLINATION":50.0027,"RA_OF_ASC_NODE":146.8678,"ARG_OF_PERICENTER":345.1433,"MEAN_ANOMALY":14.9432,"EPHEMERIS_TYPE":0,"NORAD_CAT_ID":65051,"ELEMENT_SET_NO":999,"REV_AT_EPOCH":4776,"BSTAR":0.000061789651,"MEAN_MOTION_DOT":-9.5e-7,"MEAN_MOTION_DDOT":0},{"OBJECT_NAME":"HULIANWANG DIGUI-49","OBJECT_ID":"2025-168A","EPOCH":"2026-07-20T07:34:32.909952","CLASSIFICATION_TYPE":"U","MEAN_MOTION":13.29322111,"ECCENTRICITY":0.00082542,"INCLINATION":50.0006,"RA_OF_ASC_NODE":207.1484,"ARG_OF_PERICENTER":206.6755,"MEAN_ANOMALY":153.3693,"EPHEMERIS_TYPE":0,"NORAD_CAT_ID":65106,"ELEMENT_SET_NO":999,"REV_AT_EPOCH":4709,"BSTAR":0.00002506323,"MEAN_MOTION_DOT":-0.00000112,"MEAN_MOTION_DDOT":0},{"OBJECT_NAME":"HULIANWANG DIGUI-50","OBJECT_ID":"2025-168B","EPOCH":"2026-07-20T05:34:11.241984","CLASSIFICATION_TYPE":"U","MEAN_MOTION":13.29321812,"ECCENTRICITY":0.00088386,"INCLINATION":49.9976,"RA_OF_ASC_NODE":207.287,"ARG_OF_PERICENTER":192.2174,"MEAN_ANOMALY":167.8485,"EPHEMERIS_TYPE":0,"NORAD_CAT_ID":65107,"ELEMENT_SET_NO":999,"REV_AT_EPOCH":4708,"BSTAR":0.000022347338,"MEAN_MOTION_DOT":-0.00000114,"MEAN_MOTION_DDOT":0},{"OBJECT_NAME":"HULIANWANG DIGUI-51","OBJECT_ID":"2025-168C","EPOCH":"2026-07-20T07:09:53.693568","CLASSIFICATION_TYPE":"U","MEAN_MOTION":13.2932505,"ECCENTRICITY":0.00101472,"INCLINATION":50.0013,"RA_OF_ASC_NODE":207.0791,"ARG_OF_PERICENTER":191.4572,"MEAN_ANOMALY":168.607,"EPHEMERIS_TYPE":0,"NORAD_CAT_ID":65108,"ELEMENT_SET_NO":999,"REV_AT_EPOCH":4709,"BSTAR":0.000047486167,"MEAN_MOTION_DOT":-0.00000102,"MEAN_MOTION_DDOT":0},{"OBJECT_NAME":"HULIANWANG DIGUI-52","OBJECT_ID":"2025-168D","EPOCH":"2026-07-20T06:58:14.641536","CLASSIFICATION_TYPE":"U","MEAN_MOTION":13.29322978,"ECCENTRICITY":0.00103908,"INCLINATION":50.0006,"RA_OF_ASC_NODE":207.0129,"ARG_OF_PERICENTER":204.0865,"MEAN_ANOMALY":155.9522,"EPHEMERIS_TYPE":0,"NORAD_CAT_ID":65109,"ELEMENT_SET_NO":999,"REV_AT_EPOCH":4709,"BSTAR":0.000052711255,"MEAN_MOTION_DOT":-9.9e-7,"MEAN_MOTION_DDOT":0},{"OBJECT_NAME":"HULIANWANG DIGUI-53","OBJECT_ID":"2025-168E","EPOCH":"2026-07-20T06:45:56.692224","CLASSIFICATION_TYPE":"U","MEAN_MOTION":13.2932644,"ECCENTRICITY":0.00088901,"INCLINATION":50.0014,"RA_OF_ASC_NODE":206.9982,"ARG_OF_PERICENTER":195.0748,"MEAN_ANOMALY":164.986,"EPHEMERIS_TYPE":0,"NORAD_CAT_ID":65110,"ELEMENT_SET_NO":999,"REV_AT_EPOCH":4709,"BSTAR":0.000050050752,"MEAN_MOTION_DOT":-0.00000101,"MEAN_MOTION_DDOT":0},{"OBJECT_NAME":"HULIANWANG DIGUI-54","OBJECT_ID":"2025-168F","EPOCH":"2026-07-20T06:10:08.236992","CLASSIFICATION_TYPE":"U","MEAN_MOTION":13.29326576,"ECCENTRICITY":0.00107473,"INCLINATION":49.9965,"RA_OF_ASC_NODE":206.7276,"ARG_OF_PERICENTER":199.2902,"MEAN_ANOMALY":160.7565,"EPHEMERIS_TYPE":0,"NORAD_CAT_ID":65111,"ELEMENT_SET_NO":999,"REV_AT_EPOCH":4709,"BSTAR":0.000025872048,"MEAN_MOTION_DOT":-0.00000112,"MEAN_MOTION_DDOT":0},{"OBJECT_NAME":"HULIANWANG DIGUI-55","OBJECT_ID":"2025-168G","EPOCH":"2026-07-20T06:34:04.211904","CLASSIFICATION_TYPE":"U","MEAN_MOTION":13.29322872,"ECCENTRICITY":0.00117856,"INCLINATION":49.997,"RA_OF_ASC_NODE":206.8276,"ARG_OF_PERICENTER":195.2841,"MEAN_ANOMALY":164.7676,"EPHEMERIS_TYPE":0,"NORAD_CAT_ID":65112,"ELEMENT_SET_NO":999,"REV_AT_EPOCH":4709,"BSTAR":0.00004421004,"MEAN_MOTION_DOT":-0.00000103,"MEAN_MOTION_DDOT":0},{"OBJECT_NAME":"HULIANWANG DIGUI-56","OBJECT_ID":"2025-168H","EPOCH":"2026-07-20T06:22:08.559840","CLASSIFICATION_TYPE":"U","MEAN_MOTION":13.29322323,"ECCENTRICITY":0.00119684,"INCLINATION":49.9962,"RA_OF_ASC_NODE":206.7605,"ARG_OF_PERICENTER":215.1565,"MEAN_ANOMALY":144.8518,"EPHEMERIS_TYPE":0,"NORAD_CAT_ID":65113,"ELEMENT_SET_NO":999,"REV_AT_EPOCH":4709,"BSTAR":0.000036418319,"MEAN_MOTION_DOT":-0.00000107,"MEAN_MOTION_DDOT":0},{"OBJECT_NAME":"HULIANWANG DIGUI-57","OBJECT_ID":"2025-168J","EPOCH":"2026-07-20T05:58:09.118560","CLASSIFICATION_TYPE":"U","MEAN_MOTION":13.2932647,"ECCENTRICITY":0.00095551,"INCLINATION":49.999,"RA_OF_ASC_NODE":206.7581,"ARG_OF_PERICENTER":207.4496,"MEAN_ANOMALY":152.5872,"EPHEMERIS_TYPE":0,"NORAD_CAT_ID":65114,"ELEMENT_SET_NO":999,"REV_AT_EPOCH":4710,"BSTAR":0.000025996005,"MEAN_MOTION_DOT":-0.00000112,"MEAN_MOTION_DDOT":0},{"OBJECT_NAME":"HULIANWANG DIGUI-58","OBJECT_ID":"2025-174A","EPOCH":"2026-07-20T06:44:48.378336","CLASSIFICATION_TYPE":"U","MEAN_MOTION":13.24407658,"ECCENTRICITY":0.00018376,"INCLINATION":86.494,"RA_OF_ASC_NODE":240.8364,"ARG_OF_PERICENTER":101.0886,"MEAN_ANOMALY":259.0455,"EPHEMERIS_TYPE":0,"NORAD_CAT_ID":65164,"ELEMENT_SET_NO":999,"REV_AT_EPOCH":4517,"BSTAR":0.000056541074,"MEAN_MOTION_DOT":3.9e-7,"MEAN_MOTION_DDOT":0},{"OBJECT_NAME":"HULIANWANG DIGUI-59","OBJECT_ID":"2025-174B","EPOCH":"2026-07-20T06:55:44.369472","CLASSIFICATION_TYPE":"U","MEAN_MOTION":13.24407748,"ECCENTRICITY":0.0001927,"INCLINATION":86.4901,"RA_OF_ASC_NODE":240.712,"ARG_OF_PERICENTER":99.6124,"MEAN_ANOMALY":260.5228,"EPHEMERIS_TYPE":0,"NORAD_CAT_ID":65165,"ELEMENT_SET_NO":999,"REV_AT_EPOCH":4517,"BSTAR":0.000082362315,"MEAN_MOTION_DOT":5e-7,"MEAN_MOTION_DDOT":0}]}
